NORAD_CAT_ID,OBJECT_NAME,OBJECT_TYPE,EPOCH,MEAN_MOTION,ECCENTRICITY,INCLINATION,RA_OF_ASC_NODE,ARG_OF_PERICENTER,MEAN_ANOMALY,BSTAR,MEAN_MOTION_DOT,MEAN_MOTION_DDOT,TLE_LINE0,TLE_LINE1,TLE_LINE2,SEMIMAJOR_AXIS,PERIOD,APOGEE,PERIGEE,DECAYED
52468.0,STARLINK-3864,PAYLOAD,2023-06-20 09:07:47,15.08837373,0.0001016,53.2156,198.2571,87.8209,272.2899,6.5226e-05,7.5e-06,0.0,0 STARLINK-3864,1 52468U 22049T   23171.38041166  .00000750  00000-0  65226-4 0  9992,2 52468  53.2156 198.2571 0001016  87.8209 272.2899 15.08837373 62297,6917.888,95.438,540.456,539.051,0.0
52468.0,STARLINK-3864,PAYLOAD,2023-06-21 08:58:34,15.08838351,0.0001007,53.2156,193.7963,83.4852,276.6255,4.688e-05,4.58e-06,0.0,0 STARLINK-3864,1 52468U 22049T   23172.37401358  .00000458  00000-0  46880-4 0  9995,2 52468  53.2156 193.7963 0001007  83.4852 276.6255 15.08838351 62604,6917.885,95.438,540.447,539.054,0.0
52468.0,STARLINK-3864,PAYLOAD,2023-06-21 18:30:53,15.08837585,0.0001017,53.2157,192.0125,85.9398,274.1711,3.3634e-05,2.48e-06,0.0,0 STARLINK-3864,1 52468U 22049T   23172.77145481  .00000248  00000-0  33634-4 0  9991,2 52468  53.2157 192.0125 0001017  85.9398 274.1711 15.08837585 62507,6917.888,95.438,540.456,539.049,0.0
52468.0,STARLINK-3864,PAYLOAD,2023-06-22 18:21:40,15.0884002,0.0001031,53.2157,187.5514,87.2071,272.9039,4.5729e-05,4.4e-06,0.0,0 STARLINK-3864,1 52468U 22049T   23173.76505389  .00000440  00000-0  45729-4 0  9990,2 52468  53.2157 187.5514 0001031  87.2071 272.9039 15.08840020 62818,6917.88,95.438,540.459,539.032,0.0
52468.0,STARLINK-3864,PAYLOAD,2023-06-24 03:44:46,15.08837599,0.0001025,53.2158,181.3067,86.7455,273.3654,3.7398e-05,3.07e-06,0.0,0 STARLINK-3864,1 52468U 22049T   23175.15609450  .00000307  00000-0  37398-4 0  9994,2 52468  53.2158 181.3067 0001025  86.7455 273.3654 15.08837599 63026,6917.888,95.438,540.462,539.044,0.0
52468.0,STARLINK-3864,PAYLOAD,2023-06-25 06:46:20,15.08836713,0.000109,53.2158,176.2513,86.7713,273.3404,-4.0975e-05,-9.4e-06,0.0,0 STARLINK-3864,1 52468U 22049T   23176.28217772 -.00000940  00000-0 -40975-4 0  9991,2 52468  53.2158 176.2513 0001090  86.7713 273.3404 15.08836713 63192,6917.89,95.438,540.509,539.001,0.0
52468.0,STARLINK-3864,PAYLOAD,2023-06-26 16:09:26,15.08838462,0.000106,53.2156,170.0069,80.9742,279.137,-1.4369e-05,-5.16e-06,0.0,0 STARLINK-3864,1 52468U 22049T   23177.67321840 -.00000516  00000-0 -14369-4 0  9994,2 52468  53.2156 170.0069 0001060  80.9742 279.1370 15.08838462 63406,6917.885,95.438,540.483,539.017,0.0
52468.0,STARLINK-3864,PAYLOAD,2023-06-28 03:07:55,15.08838418,0.0001105,53.2162,163.4658,86.4854,273.6264,3.9459e-05,3.4e-06,0.0,0 STARLINK-3864,1 52468U 22049T   23179.13050190  .00000340  00000-0  39459-4 0  9994,2 52468  53.2162 163.4658 0001105  86.4854 273.6264 15.08838418 63624,6917.885,95.438,540.515,538.986,0.0
52468.0,STARLINK-3864,PAYLOAD,2023-06-29 04:34:05,15.08839099,0.0001103,53.2161,158.7075,89.7194,270.3924,4.5636e-05,4.39e-06,0.0,0 STARLINK-3864,1 52468U 22049T   23180.19034211  .00000439  00000-0  45636-4 0  9991,2 52468  53.2161 158.7075 0001103  89.7194 270.3924 15.08839099 63784,6917.883,95.438,540.511,538.985,0.0
52468.0,STARLINK-3864,PAYLOAD,2023-06-30 15:32:34,15.08836379,0.0001104,53.216,152.1647,96.0601,264.0517,5.8031e-06,-1.95e-06,0.0,0 STARLINK-3864,1 52468U 22049T   23181.64762403 -.00000195  00000-0  58031-5 0  9997,2 52468  53.2160 152.1647 0001104  96.0601 264.0517 15.08836379 64003,6917.891,95.438,540.52,538.993,0.0
52468.0,STARLINK-3864,PAYLOAD,2023-07-01 07:26:26,15.08820316,0.0001264,53.2171,149.1904,93.1192,266.9945,0.00019456,2.808e-05,0.0,0 STARLINK-3864,1 52468U 22049T   23182.31002855  .00002808  00000-0  19456-3 0  9998,2 52468  53.2171 149.1904 0001264  93.1192 266.9945 15.08820316 64108,6917.941,95.439,540.68,538.931,0.0
52468.0,STARLINK-3864,PAYLOAD,2023-07-01 15:23:21,15.0883342,0.0001237,53.217,147.7042,88.6475,271.4659,8.8163e-05,1.115e-05,0.0,0 STARLINK-3864,1 52468U 22049T   23182.64122533  .00001115  00000-0  88163-4 0  9992,2 52468  53.2170 147.7042 0001237  88.6475 271.4659 15.08833420 64155,6917.901,95.438,540.621,538.91,0.0
52468.0,STARLINK-3864,PAYLOAD,2023-07-02 07:17:12,15.08841749,0.0001267,53.217,144.7303,87.8973,272.2165,5.7081e-05,6.21e-06,0.0,0 STARLINK-3864,1 52468U 22049T   23183.30361990  .00000621  00000-0  57081-4 0  9994,2 52468  53.2170 144.7303 0001267  87.8973 272.2165 15.08841749 64254,6917.875,95.437,540.617,538.864,0.0
52468.0,STARLINK-3864,PAYLOAD,2023-07-04 02:12:38,15.0883487,0.000127,53.2173,136.7049,84.2179,275.8958,-2.7236e-05,-7.21e-06,0.0,0 STARLINK-3864,1 52468U 22049T   23185.09210882 -.00000721  00000-0 -27236-4 0  9997,2 52468  53.2173 136.7049 0001270  84.2179 275.8958 15.08834870 64524,6917.896,95.438,540.64,538.882,0.0
52468.0,STARLINK-3864,PAYLOAD,2023-07-05 13:11:07,15.08837004,0.0001129,53.2166,130.1611,88.7753,271.3368,-9.6884e-06,-4.42e-06,0.0,0 STARLINK-3864,1 52468U 22049T   23186.54939025 -.00000442  00000-0 -96884-5 0  9991,2 52468  53.2166 130.1611 0001129  88.7753 271.3368 15.08837004 64741,6917.89,95.438,540.536,538.974,0.0
52468.0,STARLINK-3864,PAYLOAD,2023-07-06 20:58:50,15.08838422,0.0001132,53.2167,124.2133,86.2773,273.8349,4.0937e-05,3.64e-06,0.0,0 STARLINK-3864,1 52468U 22049T   23187.87419132  .00000364  00000-0  40937-4 0  9998,2 52468  53.2167 124.2133 0001132  86.2773 273.8349 15.08838422 64947,6917.885,95.438,540.533,538.967,0.0
52468.0,STARLINK-3864,PAYLOAD,2023-07-08 01:35:46,15.0883917,0.0001376,53.2172,118.8606,80.9385,279.1763,4.5025e-05,4.29e-06,0.0,0 STARLINK-3864,1 52468U 22049T   23189.06651210  .00000429  00000-0  45025-4 0  9991,2 52468  53.2172 118.8606 0001376  80.9385 279.1763 15.08839170 65128,6917.883,95.438,540.7,538.796,0.0
52468.0,STARLINK-3864,PAYLOAD,2023-07-09 04:37:20,15.08840578,0.0001139,53.217,113.8045,94.94,265.1723,-1.9404e-05,-5.97e-06,0.0,0 STARLINK-3864,1 52468U 22049T   23190.19259381 -.00000597  00000-0 -19404-4 0  9990,2 52468  53.2170 113.8045 0001139  94.9400 265.1723 15.08840578 65291,6917.879,95.438,540.532,538.956,0.0
52468.0,STARLINK-3864,PAYLOAD,2023-07-11 01:08:08,15.08836119,0.0001208,53.2178,105.4782,96.1798,263.9332,-6.7119e-06,-3.95e-06,0.0,0 STARLINK-3864,1 52468U 22049T   23192.04731732 -.00000395  00000-0 -67119-5 0  9994,2 52468  53.2178 105.4782 0001208  96.1798 263.9332 15.08836119 65574,6917.892,95.438,540.593,538.922,0.0
52468.0,STARLINK-3864,PAYLOAD,2023-07-12 00:58:54,15.08849631,0.0001087,53.2172,101.0201,84.5728,275.5388,1.6382e-05,-2.7e-07,0.0,0 STARLINK-3864,1 52468U 22049T   23193.04090886 -.00000027  00000-0  16382-4 0  9999,2 52468  53.2172 101.0201 0001087  84.5728 275.5388 15.08849631 65725,6917.851,95.437,540.468,538.964,0.0
52468.0,STARLINK-3864,PAYLOAD,2023-07-12 18:28:10,15.08833521,0.0001268,53.2182,97.7518,96.8352,263.2784,-2.1933e-05,-6.37e-06,0.0,0 STARLINK-3864,1 52468U 22049T   23193.76956038 -.00000637  00000-0 -21933-4 0  9994,2 52468  53.2182  97.7518 0001268  96.8352 263.2784 15.08833521 65835,6917.9,95.438,540.642,538.888,0.0
52468.0,STARLINK-3864,PAYLOAD,2023-07-13 21:29:43,15.08836577,0.0001102,53.2171,92.6946,86.5761,273.5357,-3.8702e-05,-9.04e-06,0.0,0 STARLINK-3864,1 52468U 22049T   23194.89564305 -.00000904  00000-0 -38702-4 0  9990,2 52468  53.2171  92.6946 0001102  86.5761 273.5357 15.08836577 66003,6917.891,95.438,540.518,538.994,0.0
52468.0,STARLINK-3864,PAYLOAD,2023-07-15 00:31:15,15.08847596,0.0001148,53.2173,87.6393,83.5829,276.5294,0.00019066,2.748e-05,0.0,0 STARLINK-3864,1 52468U 22049T   23196.02170973  .00002748  00000-0  19066-3 0  9998,2 52468  53.2173  87.6393 0001148  83.5829 276.5294 15.08847596 66171,6917.857,95.437,540.516,538.928,0.0
52468.0,STARLINK-3864,PAYLOAD,2023-07-15 11:38:58,15.08837219,0.0001187,53.2188,85.5579,90.982,269.1308,8.9488e-05,1.137e-05,0.0,0 STARLINK-3864,1 52468U 22049T   23196.48539920  .00001137  00000-0  89488-4 0  9996,2 52468  53.2188  85.5579 0001187  90.9820 269.1308 15.08837219 66249,6917.889,95.438,540.575,538.933,0.0
52468.0,STARLINK-3864,PAYLOAD,2023-07-16 17:51:18,15.08846772,0.0001183,53.217,79.9068,82.0735,278.0392,-4.0229e-05,-9.28e-06,0.0,0 STARLINK-3864,1 52468U 22049T   23197.74396008 -.00000928  00000-0 -40229-4 0  9993,2 52468  53.2170  79.9068 0001183  82.0735 278.0392 15.08846772 66430,6917.86,95.437,540.543,538.906,0.0
52468.0,STARLINK-3864,PAYLOAD,2023-07-17 22:28:14,15.08837242,0.0001126,53.2173,74.5538,77.7067,282.4051,0.00033345,5.023e-05,0.0,0 STARLINK-3864,1 52468U 22049T   23198.93627569  .00005023  00000-0  33345-3 0  9993,2 52468  53.2173  74.5538 0001126  77.7067 282.4051 15.08837242 66615,6917.889,95.438,540.533,538.975,0.0
52468.0,STARLINK-3864,PAYLOAD,2023-07-18 19:08:15,15.08833788,0.0001156,53.2173,70.6895,86.0977,274.0147,-6.0885e-06,-3.85e-06,0.0,0 STARLINK-3864,1 52468U 22049T   23199.79740539 -.00000385  00000-0 -60885-5 0  9990,2 52468  53.2173  70.6895 0001156  86.0977 274.0147 15.08833788 66742,6917.899,95.438,540.564,538.965,0.0
52468.0,STARLINK-3864,PAYLOAD,2023-07-20 17:14:27,15.0883355,0.0001043,53.218,62.0655,90.906,269.2052,0.00014594,2.035e-05,0.0,0 STARLINK-3864,1 52468U 22049T   23201.71836857  .00002035  00000-0  14594-3 0  9991,2 52468  53.2180  62.0655 0001043  90.9060 269.2052 15.08833550 67032,6917.9,95.438,540.487,539.044,0.0
52468.0,STARLINK-3864,PAYLOAD,2023-07-24 13:26:48,15.08833985,9.55e-05,53.2188,44.8152,125.5638,234.5444,0.00015271,2.143e-05,0.0,0 STARLINK-3864,1 52468U 22049T   23205.56028905  .00002143  00000-0  15271-3 0  9998,2 52468  53.2188  44.8152 0000955 125.5638 234.5444 15.08833985 67455,6917.899,95.438,540.424,539.103,0.0
52468.0,STARLINK-3864,PAYLOAD,2023-07-25 13:17:36,15.08838955,0.0001823,53.2153,40.3581,92.2153,267.9048,4.2931e-05,3.95e-06,0.0,0 STARLINK-3864,1 52468U 22049T   23206.55389332  .00000395  00000-0  42931-4 0  9993,2 52468  53.2153  40.3581 0001823  92.2153 267.9048 15.08838955 67600,6917.884,95.438,541.01,538.487,0.0
